{
    "links": {
        "self": "http://www.neowsapp.com/rest/v1/neo/3760532?api_key=iIulBulltgU6a56xZRHN4H3l9WmuAYTsLGpBGhQ2"
    },
    "id": "3760532",
    "neo_reference_id": "3760532",
    "name": "(2016 TL17)",
    "designation": "2016 TL17",
    "nasa_jpl_url": "http://ssd.jpl.nasa.gov/sbdb.cgi?sstr=3760532",
    "absolute_magnitude_h": 24.0,
    "estimated_diameter": {
        "kilometers": {
            "estimated_diameter_min": 0.0421264611,
            "estimated_diameter_max": 0.0941976306
        },
        "meters": {
            "estimated_diameter_min": 42.1264610556,
            "estimated_diameter_max": 94.1976305719
        },
        "miles": {
            "estimated_diameter_min": 0.0261761612,
            "estimated_diameter_max": 0.0585316759
        },
        "feet": {
            "estimated_diameter_min": 138.2101784897,
            "estimated_diameter_max": 309.0473542854
        }
    },
    "is_potentially_hazardous_asteroid": false,
    "close_approach_data": [
        {
            "close_approach_date": "2016-10-05",
            "close_approach_date_full": "2016-Oct-05 12:46",
            "epoch_date_close_approach": 1475671560000,
            "relative_velocity": {
                "kilometers_per_second": "9.27337885",
                "kilometers_per_hour": "33384.1638600145",
                "miles_per_hour": "20743.621149574"
            },
            "miss_distance": {
                "astronomical": "0.2434486772",
                "lunar": "94.7015354308",
                "kilometers": "36419403.563437564",
                "miles": "22629968.0087598232"
            },
            "orbiting_body": "Earth"
        }
    ],
    "orbital_data": {
        "orbit_id": "2",
        "orbit_determination_date": "2017-04-06 08:23:15",
        "first_observation_date": "2016-10-06",
        "last_observation_date": "2016-10-08",
        "data_arc_in_days": 2,
        "observations_used": 12,
        "orbit_uncertainty": "9",
        "minimum_orbit_intersection": ".242684",
        "jupiter_tisserand_invariant": "4.987",
        "epoch_osculation": "2457668.5",
        "eccentricity": ".03587308819175553",
        "semi_major_axis": "1.287489441996825",
        "inclination": "17.97013136937615",
        "ascending_node_longitude": "195.3514448861826",
        "orbital_period": "533.5976906568661",
        "perihelion_distance": "1.241303219698119",
        "perihelion_argument": "188.781675124748",
        "aphelion_distance": "1.333675664295531",
        "perihelion_time": "2457683.921729372359",
        "mean_anomaly": "349.5954898769991",
        "mean_motion": ".6746655885201358",
        "equinox": "J2000",
        "orbit_class": {
            "orbit_class_type": "AMO",
            "orbit_class_description": "Near-Earth asteroid orbits similar to that of 1221 Amor",
            "orbit_class_range": "1.017 AU < q (perihelion) < 1.3 AU"
        }
    },
    "is_sentry_object": false
}